FLOCK 4Q-9              
1 58322U 23174BU  26095.50137061  .00031747  00000+0  64341-3 0  9994
2 58322  97.3873 182.4374 0006461  55.9541 304.2321 15.46318337134345
FLOCK 4Q-4              
1 58327U 23174BZ  26095.18789143  .00028692  00000+0  59441-3 0  9997
2 58327  97.3826 181.4554 0006950  75.2218 284.9800 15.45692372134277
FLOCK 4Q-13             
1 58328U 23174CA  26095.49724503  .00029273  00000+0  54889-3 0  9998
2 58328  97.3999 184.3662 0006766  64.7023 295.4927 15.48586228134411
FLOCK 4BE-18            
1 60480U 24149N   26095.46775838  .00023107  00000+0  58904-3 0  9999
2 60480  97.3736 178.5660 0004934 148.5130 211.6412 15.39529172 91113
FLOCK 4BE-7             
1 60481U 24149P   26095.19260429  .00026918  00000+0  73287-3 0  9999
2 60481  97.3770 177.8042 0003996 149.6218 210.5259 15.37472562 91029
FLOCK 4BE-26            
1 60484U 24149S   26095.20931301  .00150526  00000+0  25797-2 0  9993
2 60484  97.3710 178.5573 0005546 179.9581 180.1672 15.50651855 91092
FLOCK 4BE-36            
1 60486U 24149U   26095.48133564  .00025532  00000+0  63135-3 0  9997
2 60486  97.3752 179.1661 0004632 156.3459 203.8001 15.40439278 91151
FLOCK 4BE-25            
1 60487U 24149V   26095.47304113  .00018690  00000+0  51841-3 0  9995
2 60487  97.3807 178.2341 0003486 143.6824 216.4657 15.36970770 91068
FLOCK 4BE-31            
1 60488U 24149W   26095.50045392  .00026987  00000+0  64716-3 0  9994
2 60488  97.3806 179.8632 0003633 153.2048 206.9387 15.41363400 91175
FLOCK 4BE-20            
1 60489U 24149X   26095.20397667  .00019135  00000+0  54431-3 0  9997
2 60489  97.3711 177.0279 0004800 153.4014 206.7477 15.36172155 91009
FLOCK 4BE-23            
1 60490U 24149Y   26095.17691599  .00019488  00000+0  56078-3 0  9996
2 60490  97.3790 177.3363 0004391 159.6291 200.5129 15.35807754 90986
FLOCK 4BE-15            
1 60491U 24149Z   26095.17488668  .00114143  00000+0  23554-2 0  9994
2 60491  97.3721 178.6606 0005302 222.5192 137.5647 15.45430516 91106
FLOCK 4BE-17            
1 60492U 24149AA  26095.18984438  .00022171  00000+0  60033-3 0  9995
2 60492  97.3782 178.0997 0004191 149.7362 210.4126 15.37680566 91033
FLOCK 4BE-22            
1 60494U 24149AC  26095.49476636  .00021631  00000+0  56210-3 0  9999
2 60494  97.3742 178.4903 0004529 158.7341 201.4094 15.38953809 91111
FLOCK 4BE-34            
1 60495U 24149AD  26095.18905778  .00024381  00000+0  63090-3 0  9999
2 60495  97.3789 178.9535 0004607 165.7406 194.3971 15.39059521 91096
FLOCK 4BE-32            
1 60497U 24149AF  26095.19656322  .00026426  00000+0  66825-3 0  9991
2 60497  97.3728 178.4718 0004625 163.5920 196.5477 15.39748755 91095
